NUSHSAT1                
1 63211U 25052B   26068.64700493  .00023034  00000+0  74857-3 0  9997
2 63211  97.4095 325.7239 0005501  84.7512 275.4357 15.31903202 54882
STARLINK-35209          
1 65636U 25210Q   26068.97162823  .00031803  00000+0  10813-2 0  9995
2 65636  53.1610 305.8130 0001097  95.5188 264.5938 15.30201112 27773
